#aV2019  1  6  0  0  0.00000000     288 DD+AD WGS84 FIT  NGA
## 2035      0.00000000   300.00000000 58489 0.0000000000000
+   31     1  2  3  5  6  7  8  9 10 11 12 13 14 15 16 17 18
+         19 20 21 22 23 24 25 26 27 28 29 30 31 32  0  0  0
+          0  0  0  0  0  0  0  0  0  0  0  0  0  0  0  0  0
+          0  0  0  0  0  0  0  0  0  0  0  0  0  0  0  0  0
+          0  0  0  0  0  0  0  0  0  0  0  0  0  0  0  0  0
++         2  2  2  2  2  2  2  2  2  2  2  2  2  2  2  2  2
++         2  2  2  2  2  2  2  2  2  2  2  2  2  2  0  0  0
++         0  0  0  0  0  0  0  0  0  0  0  0  0  0  0  0  0
++         0  0  0  0  0  0  0  0  0  0  0  0  0  0  0  0  0
++         0  0  0  0  0  0  0  0  0  0  0  0  0  0  0  0  0
%c cc cc ccc ccc cccc cccc cccc cccc ccccc ccccc ccccc ccccc
%c cc cc ccc ccc cccc cccc cccc cccc ccccc ccccc ccccc ccccc
%f  0.0000000  0.000000000  0.00000000000  0.000000000000000
%f  0.0000000  0.000000000  0.00000000000  0.000000000000000
%i    0    0    0    0      0      0      0      0         0
%i    0    0    0    0      0      0      0      0         0
/*      NGA, ST. LOUIS,MO.                                  
/*   EPHEMERIS COMPUTED FROM 2 DAYS OF DATA                 
/*   EPOCHA v3 SMOOTHER                                     
/*   G1762 IERS2010 SATAF SATAPC                            
*  2019  1  6 20  0  0.00000000
P  1 -22690.833999 -14123.716513    153.591866   -141.017501                    
V  1    799.242705  -2018.690931 -31846.078158     -0.062612                    
P  2   7042.866212  18579.780956  18314.688526   -106.122197                    
V  2 -20051.225860  -9204.676820  17429.859798     -0.101479                    
P  3 -13126.822206 -12489.186747  19404.963820    175.395764                    
V  3   2021.036052 -24644.845833 -14397.056778      0.026950                    
P  5   3103.683029  25886.041018  -4587.439919      0.709425                    
V  5  -3314.894362   5696.760367  30902.998498      0.001548                    
P  6  -6680.948626  13417.687086  21966.413589    302.043549                    
V  6 -23695.658590 -14451.203590   1644.781197     -0.074138                    
P  7 -22852.471044  -3618.800388 -13200.690555     56.574583                    
V  7 -13169.279611 -10942.145149  24879.020220     -0.070484                    
P  8 -10056.171520 -11451.834021 -21716.850933   -128.165847                    
V  8  24077.415111 -13595.013324  -3793.883426     -0.012785                    
P  9 -24226.519338   6116.344259   8973.792797    474.832255                    
V  9   8666.306780  -8031.382359  28706.134026     -0.044060                    
P 10  11347.345903 -18165.370288 -15536.029935    139.953648                    
V 10   1505.693704  19936.752635 -22330.449296     -0.062057                    
P 11 -22286.303160 -10583.661401 -10073.218729   -678.909390                    
V 11  12613.361165  -2497.970074 -26943.106750      0.051450                    
P 12  10572.628239  16081.217774  18189.206132    278.480647                    
V 12  -3373.263812  23156.900066 -18138.159304     -0.030514                    
P 13   1327.771472  15487.113368 -21651.409263    -79.187243                    
V 13 -25503.063451   9451.214491   5256.705666      0.012367                    
P 14  13965.977598 -17339.774523  14647.489848    -93.562861                    
V 14  17481.495718  -5344.262376 -23654.988985      0.005742                    
P 15  14082.539705   9388.096158 -20790.945769   -333.306756                    
V 15 -21225.553761  14838.476556  -7375.998814      0.015325                    
P 16   -414.564032 -25854.211986  -5122.176108    -11.134861                    
V 16   3046.742270  -6043.828391  31682.910593     -0.023018                    
P 17 -20987.397886  14876.724042   6788.625234     -8.355888                    
V 17  -8171.282272   1621.735665 -30768.618681      0.051593                    
P 18 -17343.604796 -17819.501990 -10010.792629     13.180739                    
V 18  11701.675240   3646.569589 -27970.996832      0.037544                    
P 19 -14974.179588  16519.204455  14223.285322   -366.095619                    
V 19 -17712.159278   5543.431911 -24478.428629      0.039766                    
P 20  14560.547342  -8855.525147 -20461.213809    520.828890                    
V 20   3322.376744  25679.637866  -8933.158237      0.004358                    
P 21  21596.404930   -165.730405 -14595.212477   -273.864227                    
V 21  16294.632054  11946.124801  22827.554888      0.068724                    
P 22 -11573.467312 -19219.293361  14482.354461   -616.674318                    
V 22   2112.822925 -18161.714483 -22735.764060     -0.088366                    
P 23 -20683.990413  -2576.890518  16997.628081   -201.323762                    
V 23  17375.800969 -11741.385302  19312.519948      0.011627                    
P 24  21224.086324  15638.789871  -4591.369850    -60.441883                    
V 24  -6420.015111    -12.288124 -30357.671911     -0.004802                    
P 25  14645.772986   3848.036170  21650.941355   -702.147693                    
V 25  -1166.168764  27864.739997  -3880.683455     -0.054479                    
P 26   4048.688255 -25594.697110   5403.135911     89.059236                    
V 26   3039.345246   6936.691695  30696.371261      0.106758                    
P 27    714.038210 -16392.731854 -20906.827307    -44.560805                    
V 27  23601.521368 -11796.090439  10368.327681     -0.063886                    
P 28 -12688.580993  16443.104870 -15985.478437    761.105760                    
V 28   1010.030091 -21414.804970 -21906.587591      0.011001                    
P 29  23617.161315  -2084.283849  11949.593209    299.083386                    
V 29 -13071.715477   7888.328834  27164.344997     -0.083576                    
P 30 -16263.217554   6475.938990 -20004.668441    -31.690473                    
V 30 -20334.882883 -15358.275165  11380.380194     -0.060621                    
P 31   4383.257418 -15025.673342  21416.414112     67.597423                    
V 31  23093.207659  14440.238052   5840.386942     -0.026231                    
P 32  18948.259396 -16756.081303   7969.303077   -286.439251                    
V 32  10223.883441  -2355.976520 -29502.124419      0.167548                    
EOF
